NORAD_CAT_ID,OBJECT_NAME,OBJECT_TYPE,EPOCH,MEAN_MOTION,ECCENTRICITY,INCLINATION,RA_OF_ASC_NODE,ARG_OF_PERICENTER,MEAN_ANOMALY,BSTAR,MEAN_MOTION_DOT,MEAN_MOTION_DDOT,TLE_LINE0,TLE_LINE1,TLE_LINE2,SEMIMAJOR_AXIS,PERIOD,APOGEE,PERIGEE,DECAYED
51758.0,STARLINK-3458,PAYLOAD,2023-02-08 08:00:01,15.0879508,0.0001766,53.2141,320.9952,74.3614,104.4753,0.0028315,0.00045008,0.0,0 STARLINK-3458,1 51758U 22016AW  23039.33334491  .00045008  00000-0  28315-2 0  9992,2 51758  53.2141 320.9952 0001766  74.3614 104.4753 15.08795080 54959,6918.018,95.44,541.104,538.661,0.0
51758.0,STARLINK-3458,PAYLOAD,2023-02-08 14:00:01,15.08797029,0.0001695,53.2142,319.8716,80.2892,17.2165,0.0044227,0.00070723,0.0,0 STARLINK-3458,1 51758U 22016AW  23039.58334491  .00070723  00000-0  44227-2 0  9991,2 51758  53.2142 319.8716 0001695  80.2892  17.2165 15.08797029  1304,6918.012,95.44,541.049,538.704,0.0
51758.0,STARLINK-3458,PAYLOAD,2023-02-08 22:00:00,15.08905117,0.0001832,53.2142,318.3759,74.289,34.7822,-0.0059572,-0.0009403,0.0,0 STARLINK-3458,1 51758U 22016AW  23039.91667824 -.00094030  00000-0 -59572-2 0  9995,2 51758  53.2142 318.3759 0001832  74.2890  34.7822 15.08905117  1302,6917.681,95.433,540.814,538.279,0.0
51758.0,STARLINK-3458,PAYLOAD,2023-02-09 08:00:01,15.08792168,0.0001966,53.214,316.5058,60.6818,152.9268,0.0025688,0.00040778,0.0,0 STARLINK-3458,1 51758U 22016AW  23040.33334491  .00040778  00000-0  25688-2 0  9993,2 51758  53.2140 316.5058 0001966  60.6818 152.9268 15.08792168 55103,6918.027,95.441,541.252,538.532,0.0
51758.0,STARLINK-3458,PAYLOAD,2023-02-09 12:00:00,15.08805328,0.0001895,53.2142,315.7566,65.5187,333.8641,0.0026458,0.00042032,0.0,0 STARLINK-3458,1 51758U 22016AW  23040.50001157  .00042032  00000-0  26458-2 0  9993,2 51758  53.2142 315.7566 0001895  65.5187 333.8641 15.08805328  1305,6917.986,95.44,541.162,538.54,0.0
51758.0,STARLINK-3458,PAYLOAD,2023-02-09 22:57:19,15.08834616,0.0001933,53.2156,313.7097,77.0616,283.0592,1.9771e-05,2.6e-07,0.0,0 STARLINK-3458,1 51758U 22016AW  23040.95647143  .00000026  00000-0  19771-4 0  9992,2 51758  53.2156 313.7097 0001933  77.0616 283.0592 15.08834616 55206,6917.897,95.438,541.099,538.425,0.0
51758.0,STARLINK-3458,PAYLOAD,2023-02-10 00:00:00,15.0890284,0.0001947,53.2141,313.5129,68.7625,167.9847,-0.0070174,-0.00110455,0.0,0 STARLINK-3458,1 51758U 22016AW  23041.00001157 -.00110455  00000-0 -70174-2 0  9990,2 51758  53.2141 313.5129 0001947  68.7625 167.9847 15.08902840  1306,6917.688,95.434,540.9,538.206,0.0
51758.0,STARLINK-3458,PAYLOAD,2023-02-10 02:08:04,15.08849767,0.0001945,53.2157,313.1112,78.9854,281.1356,0.00046113,7.06e-05,0.0,0 STARLINK-3458,1 51758U 22016AW  23041.08894597  .00007060  00000-0  46113-3 0  9998,2 51758  53.2157 313.1112 0001945  78.9854 281.1356 15.08849767 55228,6917.851,95.437,541.061,538.37,0.0
51758.0,STARLINK-3458,PAYLOAD,2023-02-10 18:00:00,15.08853001,0.0001703,53.2145,310.1442,82.5413,270.3187,0.0035407,0.00056535,0.0,0 STARLINK-3458,1 51758U 22016AW  23041.75001157  .00056535  00000-0  35407-2 0  9998,2 51758  53.2145 310.1442 0001703  82.5413 270.3187 15.08853001 55310,6917.841,95.437,540.884,538.528,0.0
51758.0,STARLINK-3458,PAYLOAD,2023-02-10 22:17:02,15.08937288,0.0001619,53.2143,309.3439,78.5752,164.3702,-0.0099884,-0.00156243,0.0,0 STARLINK-3458,1 51758U 22016AW  23041.92850694 -.00156243  00000-0 -99884-2 0  9993,2 51758  53.2143 309.3439 0001619  78.5752 164.3702 15.08937288  1306,6917.583,95.431,540.568,538.328,0.0
51758.0,STARLINK-3458,PAYLOAD,2023-02-11 05:09:37,15.08899873,0.0001817,53.215,308.0569,76.5092,283.6103,0.0030979,0.00049443,0.0,0 STARLINK-3458,1 51758U 22016AW  23042.21501538  .00049443  00000-0  30979-2 0  9997,2 51758  53.2150 308.0569 0001817  76.5092 283.6103 15.08899873 55394,6917.697,95.434,540.819,538.305,0.0
51758.0,STARLINK-3458,PAYLOAD,2023-02-11 21:03:29,15.08848397,0.0001742,53.2148,305.0824,99.6023,260.5166,0.0013807,0.00021759,0.0,0 STARLINK-3458,1 51758U 22016AW  23042.87742283  .00021759  00000-0  13807-2 0  9994,2 51758  53.2148 305.0824 0001742  99.6023 260.5166 15.08848397 55498,6917.855,95.437,540.925,538.515,0.0
51758.0,STARLINK-3458,PAYLOAD,2023-02-11 22:38:52,15.08848641,0.000166,53.215,304.785,103.426,256.6918,0.0018275,0.00028923,0.0,0 STARLINK-3458,1 51758U 22016AW  23042.94366331  .00028923  00000-0  18275-2 0  9992,2 51758  53.2150 304.7850 0001660 103.4260 256.6918 15.08848641 55507,6917.854,95.437,540.867,538.571,0.0
51758.0,STARLINK-3458,PAYLOAD,2023-02-12 05:00:24,15.0887265,0.0001233,53.215,303.5962,79.1899,280.9232,0.0027685,0.00044088,0.0,0 STARLINK-3458,1 51758U 22016AW  23043.20862164  .00044088  00000-0  27685-2 0  9992,2 51758  53.2150 303.5962 0001233  79.1899 280.9232 15.08872650 55541,6917.781,95.435,540.499,538.793,0.0
51758.0,STARLINK-3458,PAYLOAD,2023-02-12 20:54:17,15.0883486,0.0001241,53.2151,300.6235,100.2504,259.8628,0.0013512,0.00021279,0.0,0 STARLINK-3458,1 51758U 22016AW  23043.87103484  .00021279  00000-0  13512-2 0  9999,2 51758  53.2151 300.6235 0001241 100.2504 259.8628 15.08834860 55647,6917.896,95.438,540.62,538.903,0.0
51758.0,STARLINK-3458,PAYLOAD,2023-02-13 09:37:22,15.08848705,0.0001471,53.2147,298.2433,81.5016,278.6143,0.0026493,0.00042138,0.0,0 STARLINK-3458,1 51758U 22016AW  23044.40095849  .00042138  00000-0  26493-2 0  9993,2 51758  53.2147 298.2433 0001471  81.5016 278.6143 15.08848705 55721,6917.854,95.437,540.736,538.701,0.0
51758.0,STARLINK-3458,PAYLOAD,2023-02-13 17:34:18,15.08859454,0.0001496,53.2152,296.7578,96.2538,263.8624,0.0016167,0.00025549,0.0,0 STARLINK-3458,1 51758U 22016AW  23044.73215657  .00025549  00000-0  16167-2 0  9994,2 51758  53.2152 296.7578 0001496  96.2538 263.8624 15.08859454 55777,6917.821,95.436,540.721,538.651,0.0
51758.0,STARLINK-3458,PAYLOAD,2023-02-14 09:28:09,15.08862666,0.0001852,53.214,293.7807,76.5027,283.6171,0.00099586,0.00015606,0.0,0 STARLINK-3458,1 51758U 22016AW  23045.39455067  .00015606  00000-0  99586-3 0  9998,2 51758  53.2140 293.7807 0001852  76.5027 283.6171 15.08862666 55873,6917.811,95.436,540.957,538.395,0.0
51758.0,STARLINK-3458,PAYLOAD,2023-02-14 19:00:28,15.08842426,0.0001305,53.2138,291.9975,88.2191,271.895,0.00059958,9.268e-05,0.0,0 STARLINK-3458,1 51758U 22016AW  23045.79199226  .00009268  00000-0  59958-3 0  9990,2 51758  53.2138 291.9975 0001305  88.2191 271.8950 15.08842426 55934,6917.873,95.437,540.641,538.835,0.0
51758.0,STARLINK-3458,PAYLOAD,2023-02-15 01:22:00,15.0885537,0.0001445,53.2139,290.8086,83.291,276.8246,0.0023534,0.00037381,0.0,0 STARLINK-3458,1 51758U 22016AW  23046.05695330  .00037381  00000-0  23534-2 0  9994,2 51758  53.2139 290.8086 0001445  83.2910 276.8246 15.08855370 55974,6917.833,95.437,540.698,538.699,0.0
51758.0,STARLINK-3458,PAYLOAD,2023-02-15 09:18:56,15.08854235,0.0001473,53.2134,289.3214,88.1887,271.9274,0.0016083,0.00025411,0.0,0 STARLINK-3458,1 51758U 22016AW  23046.38815451  .00025411  00000-0  16083-2 0  9990,2 51758  53.2134 289.3214 0001473  88.1887 271.9274 15.08854235 56026,6917.837,95.437,540.721,538.683,0.0
51758.0,STARLINK-3458,PAYLOAD,2023-02-15 22:02:01,15.08872603,0.0001321,53.2136,286.9428,95.4268,264.6875,0.0029163,0.00046473,0.0,0 STARLINK-3458,1 51758U 22016AW  23046.91807248  .00046473  00000-0  29163-2 0  9998,2 51758  53.2136 286.9428 0001321  95.4268 264.6875 15.08872603 56108,6917.781,95.435,540.56,538.732,0.0
51758.0,STARLINK-3458,PAYLOAD,2023-02-15 23:37:24,15.08876455,0.0001374,53.2138,286.6457,93.3349,266.78,0.0030405,0.00048483,0.0,0 STARLINK-3458,1 51758U 22016AW  23046.98431169  .00048483  00000-0  30405-2 0  9994,2 51758  53.2138 286.6457 0001374  93.3349 266.7800 15.08876455 56115,6917.769,95.435,540.584,538.683,0.0
51758.0,STARLINK-3458,PAYLOAD,2023-02-16 09:09:43,15.08856316,0.0001862,53.216,284.86,73.3785,286.7411,0.00142,0.00022394,0.0,0 STARLINK-3458,1 51758U 22016AW  23047.38175598  .00022394  00000-0  14200-2 0  9998,2 51758  53.2160 284.8600 0001862  73.3785 286.7411 15.08856316 56174,6917.831,95.437,540.984,538.407,0.0
51758.0,STARLINK-3458,PAYLOAD,2023-02-16 15:31:16,15.08837354,0.0001626,53.2135,283.6721,78.589,281.5285,0.00077996,0.00012146,0.0,0 STARLINK-3458,1 51758U 22016AW  23047.64671739  .00012146  00000-0  77996-3 0  9991,2 51758  53.2135 283.6721 0001626  78.5890 281.5285 15.08837354 56217,6917.888,95.438,540.878,538.629,0.0
51758.0,STARLINK-3458,PAYLOAD,2023-02-16 21:52:49,15.08841629,0.0001454,53.2137,282.4824,71.1593,288.9557,0.0021486,0.00034074,0.0,0 STARLINK-3458,1 51758U 22016AW  23047.91168032  .00034074  00000-0  21486-2 0  9994,2 51758  53.2137 282.4824 0001454  71.1593 288.9557 15.08841629 56255,6917.875,95.437,540.746,538.735,0.0
51758.0,STARLINK-3458,PAYLOAD,2023-02-17 09:00:31,15.08840878,0.0001689,53.2126,280.4027,56.1763,303.939,0.0010901,0.00017104,0.0,0 STARLINK-3458,1 51758U 22016AW  23048.37536426  .00017104  00000-0  10901-2 0  9996,2 51758  53.2126 280.4027 0001689  56.1763 303.9390 15.08840878 56324,6917.878,95.437,540.911,538.574,0.0
51758.0,STARLINK-3458,PAYLOAD,2023-02-17 18:32:50,15.08838483,0.0001564,53.2132,278.6171,69.217,290.899,0.00066306,0.0001028,0.0,0 STARLINK-3458,1 51758U 22016AW  23048.77280581  .00010280  00000-0  66306-3 0  9997,2 51758  53.2132 278.6171 0001564  69.2170 290.8990 15.08838483 56384,6917.885,95.438,540.832,538.668,0.0
51758.0,STARLINK-3458,PAYLOAD,2023-02-17 21:43:36,15.08838125,0.0001579,53.2129,278.0235,63.1489,296.9665,0.00042318,6.453e-05,0.0,0 STARLINK-3458,1 51758U 22016AW  23048.90528614  .00006453  00000-0  42318-3 0  9998,2 51758  53.2129 278.0235 0001579  63.1489 296.9665 15.08838125 56409,6917.886,95.438,540.843,538.659,0.0
51758.0,STARLINK-3458,PAYLOAD,2023-02-17 23:18:59,15.08841059,0.0001611,53.2134,277.7258,63.6524,296.4633,0.00046177,7.069e-05,0.0,0 STARLINK-3458,1 51758U 22016AW  23048.97152542  .00007069  00000-0  46177-3 0  9999,2 51758  53.2134 277.7258 0001611  63.6524 296.4633 15.08841059 56419,6917.877,95.437,540.857,538.628,0.0
